{"spkid": "20878384", "covariance": {"epoch": "2457522.5", "labels": ["e", "q", "tp", "node", "peri", "i"], "elements": [{"name": "e", "sigma": 2.60060499876483e-08, "title": "eccentricity", "value": ".532634892968921", "units": null, "label": "e"}, {"label": "q", "sigma": 5.2639127526639e-08, "name": "q", "title": "perihelion distance", "value": "1.015308386697084", "units": "au"}, {"label": "tp", "units": "TDB", "title": "time of perihelion passage", "value": "2457330.850805316849", "name": "tp", "sigma": 2.36028655117251e-05}, {"label": "node", "units": "deg", "title": "longitude of the ascending node", "value": "148.3100093501958", "sigma": 2.25210190358762e-05, "name": "om"}, {"value": "173.1010267831146", "title": "argument of perihelion", "units": "deg", "sigma": 2.25969332039629e-05, "name": "w", "label": "peri"}, {"units": "deg", "value": "10.24272563948399", "title": "inclination", "sigma": 4.11402326745587e-06, "name": "i", "label": "i"}], "data": [["6.763146359600618E-16", "-1.362673882537875E-15", "3.030095739007228E-13", "4.162165395737267E-14", "1.296988521784657E-13", "-1.699071491804829E-15"], ["-1.362673882537875E-15", "2.770877746765764E-15", "-5.346661926388076E-13", "-7.427805247891434E-14", "-2.447838993892001E-13", "5.534306134273851E-15"], ["3.030095739007228E-13", "-5.346661926388076E-13", "5.570952603645825E-10", "1.412673130882645E-10", "1.370015416166871E-10", "2.524902044088603E-11"], ["4.162165395737267E-14", "-7.427805247891434E-14", "1.412673130882645E-10", "5.071962984142959E-10", "-4.280820510628475E-10", "-1.790856234456982E-11"], ["1.296988521784657E-13", "-2.447838993892001E-13", "1.370015416166871E-10", "-4.280820510628475E-10", "5.106213902243628E-10", "3.028550068187208E-11"], ["-1.699071491804829E-15", "5.534306134273851E-15", "2.524902044088603E-11", "-1.790856234456982E-11", "3.028550068187208E-11", "1.692518744516825E-11"]]}, "elements": [{"label": "e", "sigma": "2.6012E-8", "name": "e", "value": ".5319357857509222", "title": "eccentricity", "units": null}, {"units": "au", "value": "2.17451792618775", "title": "semi-major axis", "sigma": "1.4219E-8", "name": "a", "label": "a"}, {"label": "q", "sigma": "5.2548E-8", "name": "q", "value": "1.017814024491604", "title": "perihelion distance", "units": "au"}, {"label": "i", "units": "deg", "value": "10.24308467188464", "title": "inclination; angle with respect to x-y ecliptic plane", "sigma": "4.1119E-6", "name": "i"}, {"label": "node", "name": "om", "sigma": "2.2501E-5", "units": "deg", "value": "148.2404316209675", "title": "longitude of the ascending node"}, {"name": "w", "sigma": "2.2583E-5", "title": "argument of perihelion", "value": "173.1963590391329", "units": "deg", "label": "peri"}, {"label": "M", "sigma": "1.7987E-5", "name": "ma", "units": "deg", "title": "mean anomaly", "value": "110.7583500174817"}, {"sigma": "5.5088E-5", "name": "tp", "units": "TDB", "value": "2460840.156334623256", "title": "time of perihelion passage", "label": "tp"}, {"label": "period", "sigma": "1.1488E-5", "name": "per", "units": "d", "value": "1171.231961429116", "title": "sidereal orbital period"}, {"label": "n", "name": "n", "sigma": "3.0147E-9", "value": ".3073686612519816", "title": "mean motion", "units": "deg/d"}, {"label": "Q", "value": "3.331221827883897", "title": "aphelion distance", "units": "au", "name": "ad", "sigma": "2.1782E-8"}], "epoch": "2461200.5"}